[{"OBJECT_NAME":"LEMUR-2-AMANDA-SVANTE","OBJECT_ID":"2021-034B","EPOCH":"2026-03-09T18:37:58.823328","MEAN_MOTION":15.28469003,"ECCENTRICITY":0.00027027,"INCLINATION":97.5829,"RA_OF_ASC_NODE":144.8625,"ARG_OF_PERICENTER":205.4721,"MEAN_ANOMALY":154.6385,"EPHEMERIS_TYPE":0,"CLASSIFICATION_TYPE":"U","NORAD_CAT_ID":48269,"ELEMENT_SET_NO":999,"REV_AT_EPOCH":26584,"BSTAR":0.0011134246,"MEAN_MOTION_DOT":0.00030872,"MEAN_MOTION_DDOT":0},{"OBJECT_NAME":"STARLINK-35874","OBJECT_ID":"2025-288D","EPOCH":"2026-03-09T05:45:41.692896","MEAN_MOTION":15.27570001,"ECCENTRICITY":0.00018406,"INCLINATION":43.0023,"RA_OF_ASC_NODE":26.4182,"ARG_OF_PERICENTER":276.9906,"MEAN_ANOMALY":83.0737,"EPHEMERIS_TYPE":0,"CLASSIFICATION_TYPE":"U","NORAD_CAT_ID":66962,"ELEMENT_SET_NO":999,"REV_AT_EPOCH":1521,"BSTAR":0.00086913696,"MEAN_MOTION_DOT":0.00023725,"MEAN_MOTION_DDOT":0}]
